satname,norad_id,inclination_deg,eccentricity,mean_motion_rev_per_day,perigee_km,apogee_km,l1,l2
STARLINK-1008,44714,53.0541,0.0001691,15.06398245,546.045859415025,548.3880141164391,1 44714U 19074B   25330.60187196  .00004383  00000+0  31297-3 0  9994,2 44714  53.0541 289.3961 0001691  86.1748 273.9434 15.06398245333216
STARLINK-1011,44717,53.0434,0.0002262,16.07021842,253.5253553755265,256.5261982157481,1 44717U 19074E   25330.94519867  .00671120  23831-3  84356-3 0  9992,2 44717  53.0434 253.4951 0002262 135.3604 224.7611 16.07021842333741
STARLINK-1012,44718,53.0542,0.0001561,15.06400889,546.1277867980816,548.2898797672333,1 44718U 19074F   25330.57974397  .00001216  00000+0  10049-3 0  9995,2 44718  53.0542 289.4953 0001561  82.3786 277.7381 15.06400889333209
STARLINK-1017,44723,53.0497,0.0005273,15.17032085,511.18155712269527,518.4508655793852,1 44723U 19074L   25330.58777463  .00049711  00000+0  24811-2 0  9990,2 44723  53.0497 284.3110 0005273  43.3803 316.7605 15.17032085333286
STARLINK-1019,44724,53.0545,0.0002908,15.535832,404.3013148939899,408.24712846051716,1 44724U 19074M   25330.91673610  .00135747  00000+0  20659-2 0  9998,2 44724  53.0545 281.9337 0002908  96.8945 163.3763 15.53583200  5868
STARLINK-1020,44725,53.0552,0.0001917,15.06397295,545.8922574782564,548.5474392939277,1 44725U 19074N   25330.64793234  .00000422  00000+0  47272-4 0  9997,2 44725  53.0552 309.1911 0001917  87.3005 272.8204 15.06397295332931
STARLINK-1031,44736,53.0496,0.0007782,15.53993361,399.80168441197475,410.3590839487133,1 44736U 19074Z   25330.91673610  .01503082  00000+0  20681-1 0  9997,2 44736  53.0496 269.0140 0007782  44.3785  62.1632 15.53993361  5976
STARLINK-1036,44741,53.0544,0.0001351,15.0638944,546.3083040437286,548.1795419691261,1 44741U 19074AE  25330.34567358 -.00004455  00000+0 -28046-3 0  9997,2 44741  53.0544 310.5457 0001351  86.5350 273.5794 15.06389440332897
STARLINK-1039,44744,53.0517,0.0001671,15.14755413,520.5682388488058,522.8741714609687,1 44744U 19074AH  25330.28496404  .00029516  00000+0  15829-2 0  9993,2 44744  53.0517 327.4365 0001671 337.9393  22.1527 15.14755413332652
STARLINK-1042,44747,53.0451,0.0003345,15.4448425,430.6156332877563,435.1722129753307,1 44747U 19074AL  25330.09810573  .00022386  00000+0  48314-3 0  9996,2 44747  53.0451 229.7539 0003345 143.6698 216.4536 15.44484250334032
STARLINK-1043,44748,53.0629,0.0001173,15.36804651,454.76383831449857,456.36702490495463,1 44748U 19074AM  25330.91673610  .01189026  00000+0  30005-1 0  9999,2 44748  53.0629 326.4547 0001173  96.6063 337.7763 15.36804651  5793
STARLINK-1046,44751,53.055,0.0001583,15.06416105,546.0659240093919,548.2584737357547,1 44751U 19074AQ  25330.39912380  .00005027  00000+0  35597-3 0  9995,2 44751  53.0550 330.3069 0001583  90.8128 269.3042 15.06416105332621
STARLINK-1047,44752,53.0709,0.0001039,15.29962305,475.212738698423,476.6370127562004,1 44752U 19074AR  25330.24174496  .00012956  00000+0  45205-3 0  9994,2 44752  53.0709 268.3029 0001039 241.9170 118.1725 15.29962305333494
STARLINK-1048,44753,53.0538,0.0001106,15.06396255,546.4570910277125,547.988980667642,1 44753U 19074AS  25330.62397443 -.00000341  00000+0 -40136-5 0  9993,2 44753  53.0538 289.2957 0001106 101.8796 258.2317 15.06396255333213
STARLINK-1053,44758,53.0376,0.0005169,15.64519099,371.1316767331273,378.112679171295,1 44758U 19074AX  25330.44795125  .00066641  00000+0  67860-3 0  9991,2 44758  53.0376 238.0069 0005169 118.4666 241.6869 15.64519099333931
STARLINK-1060,44765,53.0536,0.0008569,15.70495392,351.7084454515971,363.2519462018063,1 44765U 19074BE  25330.91673610  .00167382  00000+0  13128-2 0  9996,2 44765  53.0536 281.1621 0008569  77.8620 265.1843 15.70495392  6010
STARLINK-1063,44768,53.0547,0.0001418,15.06396107,546.2414733308751,548.2055055656829,1 44768U 19074BH  25330.85249561 -.00002037  00000+0 -11793-3 0  9990,2 44768  53.0547 328.2737 0001418  83.5225 276.5925 15.06396107332705
STARLINK-1067,44771,53.0553,0.0001183,15.06386823,546.4326703277757,548.0712173518887,1 44771U 19074BL  25330.31065283 -.00003659  00000+0 -22694-3 0  9995,2 44771  53.0553 330.7062 0001183  96.9742 263.1382 15.06386823332619
STARLINK-1068,44772,53.0545,0.0001607,15.0642698,546.015979133047,548.2417595834577,1 44772U 19074BM  25330.36778942  .00020600  00000+0  13968-2 0  9990,2 44772  53.0545 310.4481 0001607  84.0577 276.0595 15.06426980332894
STARLINK-1112,44925,53.0484,0.0004224,15.59598842,385.95886211132074,391.67558503939654,1 44925U 20001M   25330.91673610  .00102699  00000+0  12567-2 0  9992,2 44925  53.0484  36.3053 0004224 319.7449  63.9724 15.59598842  5999
STARLINK-1114,44927,53.0541,0.0001108,15.06411974,546.4075350418952,547.9421841499816,1 44927U 20001P   25330.73821988  .00002623  00000+0  19488-3 0  9993,2 44927  53.0541  88.7868 0001108  91.7493 268.3623 15.06411974324337
STARLINK-1123,44930,53.0554,0.0001286,15.06409776,546.2910000968595,548.0721920397691,1 44930U 20001S   25330.62026705  .00000873  00000+0  77450-4 0  9998,2 44930  53.0554  89.3162 0001286  96.4176 263.6960 15.06409776324313
STARLINK-1144,44933,53.0446,0.0002531,15.68054178,362.7626946587943,366.17580194168295,1 44933U 20001V   25330.91673610  .00178601  00000+0  15491-2 0  9996,2 44933  53.0446  11.8590 0002531 169.0112 216.4735 15.68054178  5943
STARLINK-1094,44941,53.0545,0.0001278,15.06391091,546.3537998394404,548.1239259099912,1 44941U 20001AD  25330.56685170  .00000014  00000+0  19810-4 0  9993,2 44941  53.0545  69.5570 0001278  75.4396 284.6735 15.06391091324582
STARLINK-1096,44942,52.9696,0.0004849,16.31482451,185.37468984934094,191.74307151442554,1 44942U 20001AE  25330.86702535  .03641821  12124-4  67301-3 0  9994,2 44942  52.9696 168.1064 0004849 257.2975 102.7525 16.31482451328246
STARLINK-1122,44949,53.0564,0.0001381,15.06409946,546.2246886223193,548.1374614746483,1 44949U 20001AM  25330.65528750  .00002919  00000+0  21471-3 0  9992,2 44949  53.0564  69.1559 0001381  90.5281 269.5867 15.06409946324598
STARLINK-1080,44961,53.055,0.0001263,15.06385585,546.3810610866103,548.1304152922776,1 44961U 20001AZ  25330.65346078 -.00001453  00000+0 -78714-4 0  9994,2 44961  53.0550  49.1684 0001263  79.5133 280.5998 15.06385585324888
STARLINK-1090,44968,53.0542,0.0001293,15.06418431,546.259629889103,548.050510418444,1 44968U 20001BG  25330.52443919  .00009943  00000+0  68509-3 0  9999,2 44968  53.0542  49.7460 0001293  82.2208 277.8928 15.06418431324868
STARLINK-1107,44972,53.0036,0.0007918,15.84698045,311.8737553987921,322.47645164593087,1 44972U 20001BL  25330.91673610  .00456792  00000+0  18348-2 0  9993,2 44972  53.0036 309.2385 0007918  71.5505 159.1161 15.84698045  6036
STARLINK-1132,45044,53.0549,0.0001295,15.0641906,546.2563173259077,548.049967472788,1 45044U 20006A   25330.55023704  .00005685  00000+0  40005-3 0  9999,2 45044  53.0549   9.6311 0001295  96.2516 263.8621 15.06419060321197
STARLINK-1131,45047,53.0548,0.0001351,15.06419399,546.2164968774032,548.0877099931513,1 45047U 20006D   25330.46000654  .00011255  00000+0  77287-3 0  9993,2 45047  53.0548  30.5754 0001351  80.4236 279.6906 15.06419399320892
STARLINK-1134,45048,53.0388,0.0005735,15.30622007,470.02564715015797,477.884997043604,1 45048U 20006E   25330.36597732  .00062706  00000+0  20832-2 0  9991,2 45048  53.0388   4.6264 0005735 254.5759 105.4607 15.30622007321251
STARLINK-1156,45054,53.0556,0.0001205,15.06417838,546.322389663449,547.9913854903543,1 45054U 20006L   25330.36409600  .00001460  00000+0  11683-3 0  9999,2 45054  53.0556  30.4666 0001205  91.9372 268.1755 15.06417838320886
STARLINK-1159,45057,53.0543,0.0004017,15.53874697,402.70076310195327,408.15067739139977,1 45057U 20006P   25330.62870535  .00094732  00000+0  14359-2 0  9996,2 45057  53.0543  21.3543 0004017  14.8184 345.2942 15.53874697321043
STARLINK-1166,45060,53.0542,0.0001246,15.06431218,546.2529944078387,547.9787674257623,1 45060U 20006S   25330.58894138  .00014129  00000+0  96470-3 0  9997,2 45060  53.0542  29.4559 0001246  84.2441 275.8690 15.06431218320920
STARLINK-1169,45061,53.0549,0.0001233,15.06408615,546.3312621082687,548.0390465515275,1 45061U 20006T   25330.39727444  .00002097  00000+0  15962-3 0  9990,2 45061  53.0549  30.3199 0001233  82.3137 277.7992 15.06408615320893
STARLINK-1171,45062,53.0538,0.0008165,15.36939436,449.5865037548574,460.74528738332083,1 45062U 20006U   25330.53282066  .00059935  00000+0  16312-2 0  9995,2 45062  53.0538  22.1746 0008165   2.9552 357.1497 15.36939436321021
STARLINK-1133,45064,53.0553,0.0001447,15.06415464,546.1620723325977,548.1662544892897,1 45064U 20006W   25330.39543759  .00005860  00000+0  41182-3 0  9992,2 45064  53.0553  10.3243 0001447  91.3985 268.7170 15.06415464321177
STARLINK-1167,45071,53.056,0.000159,15.06406711,546.089862615825,548.2921169165711,1 45071U 20006AD  25330.48758223  .00002058  00000+0  15699-3 0  9994,2 45071  53.0560   9.9118 0001590  93.3513 266.7658 15.06406711321181
STARLINK-1168,45072,53.0556,0.0001565,15.06418485,546.0710964718519,548.2387128380087,1 45072U 20006AE  25330.49126189  .00002789  00000+0  20594-3 0  9997,2 45072  53.0556   9.8946 0001565  70.7497 289.3662 15.06418485321184
STARLINK-1172,45074,53.0548,0.0001438,15.06416144,546.1662213377122,548.1579373529321,1 45074U 20006AG  25330.50232771  .00006211  00000+0  43531-3 0  9996,2 45074  53.0548   9.8461 0001438  94.8104 265.3050 15.06416144321185
STARLINK-1153,45080,53.0542,0.0001364,15.06417746,546.2125594133759,548.1017796628257,1 45080U 20006AN  25330.54655851  .00009119  00000+0  63001-3 0  9999,2 45080  53.0542   9.6454 0001364  91.9205 268.1940 15.06417746321193
STARLINK-1151,45081,53.0558,0.0001485,15.06798693,544.9616579132553,547.0181235998107,1 45081U 20006AP  25330.39903123  .00211161  00000+0  13629-1 0  9992,2 45081  53.0558  10.3837 0001485  39.0346 321.0750 15.06798693321177
